[Satellite]
VERSION=1.1
NAME=COSMOS 2456 (730)
NICKNAME=COSMOS 2456 (730)
TLE1=1 36111U 09070A   20157.76328544  .00000046  00000-0  00000-0 0  9992
TLE2=2 36111  64.2279 146.4920 0006426 304.0230 177.1503  2.13102948 81531
STATUS=0
